id,spkid,full_name,pdes,name,prefix,neo,pha,H,G,M1,M2,K1,K2,PC,diameter,extent,albedo,rot_per,GM,BV,UB,IR,spec_B,spec_T,H_sigma,diameter_sigma,orbit_id,epoch,epoch_mjd,epoch_cal,equinox,e,a,q,i,om,w,ma,ad,n,tp,tp_cal,per,per_y,moid,moid_ld,moid_jup,t_jup,sigma_e,sigma_a,sigma_q,sigma_i,sigma_om,sigma_w,sigma_ma,sigma_ad,sigma_n,sigma_tp,sigma_per,class,producer,data_arc,first_obs,last_obs,n_obs_used,n_del_obs_used,n_dop_obs_used,condition_code,rms,two_body,A1,A2,A3,DT
a0005587,2005587,5587 (1990 SB),5587,,,Y,N,13.8,,,,,,,3.57,,0.32,5.0522,,,,,Sq,,,,JPL 325,2459000.5,59000,20200531.0000000,J2000,0.5448120726949470,2.396403608998160,1.090813991766220,18.09771873407260,189.9521427943220,86.77352470273290,39.27329086576080,3.701993226230100,0.2656832201862650,2458852.680010320000,20200104.1800103,1354.997126832520,3.70977995026014,0.30648,119.2728216,1.97039,3.253,1.9561E-08,4.8583E-09,4.7013E-08,4.7168E-06,1.1034E-05,1.2366E-05,6.6047E-06,7.5051E-09,8.0794E-10,2.4434E-05,4.1205E-06,AMO,Otto Matic,24379,1953-12-07,2020-09-05,3160,,,0,0.40293,,,,,
a0005590,2005590,5590 (1990 VA),5590,,,Y,N,19.7,,,,,,,,,,,,,,,,,,,JPL 16,2459000.5,59000,20200531.0000000,J2000,0.2795412193736890,0.985702882908754,0.7101582970802810,14.18555302786630,216.2918148944790,34.49085483284230,214.3805559151530,1.261247468737230,1.007128842862160,2459145.088694010000,20201022.5886940,357.451782412382,0.978649643839513,0.121622,47.33163374,3.7662,6.089,1.7275E-06,2.215E-08,1.7136E-06,6.6212E-05,6.43E-05,0.0001052,0.00074024,2.8342E-08,3.3947E-08,0.0007383,1.2049E-05,ATE,Otto Matic,2218,1990-11-09,1996-12-05,67,,,2,0.65706,,,,,
a0005604,2005604,5604 (1992 FE),5604,,,Y,Y,17.2,,,,,,,0.55,,0.48,5.3375,,,,,V,,,,JPL 186,2459000.5,59000,20200531.0000000,J2000,0.4060067985630430,0.9285867413164060,0.5515742112864430,4.715356390318170,311.9099486141820,82.65278813760980,307.6091311473810,1.305599271346370,1.101464124300930,2459048.064752860000,20200717.5647529,326.8376990748410,0.894832851676499,0.0336543,13.097243931,4.13,6.373,1.3161E-08,3.897E-09,1.3526E-08,2.5903E-06,1.64E-05,1.5701E-05,9.1501E-06,5.4792E-09,6.9337E-09,8.5959E-06,2.0574E-06,ATE,Otto Matic,16041,1976-04-23,2020-03-24,940,6,0,0,0.3816,,,-2.65352856664726E-14,,
a0005620,2005620,5620 Jasonwheeler (1990 OA),5620,Jasonwheeler,,Y,N,17.0,,,,,,,,,,5.307,,,,,,,,,JPL 108,2459000.5,59000,20200531.0000000,J2000,0.4224217252142450,2.159728189662310,1.247412081791320,7.871966780751170,128.6791593527160,153.7868971743570,155.0288515879920,3.072044297533300,0.3105313336795790,2458501.262613060000,20190117.7626131,1159.30330036023,3.1739994534161,0.239058,93.03420186,2.12426,3.566,4.3801E-08,6.9511E-09,9.5452E-08,4.6677E-06,3.8361E-05,3.8405E-05,9.3251E-06,9.8874E-09,1.4992E-09,2.794E-05,5.5968E-06,AMO,Otto Matic,23598,1955-05-16,2019-12-24,468,,,0,0.53952,,,,,
a0005626,2005626,5626 Melissabrucker (1991 FE),5626,Melissabrucker,,Y,N,14.2,,,,,,,,,,133.6,,,,,S,,,,JPL 586,2459000.5,59000,20200531.0000000,J2000,0.4543917925623560,2.194606397533990,1.197395262589710,3.848550679587500,173.0971766733250,231.8811508533650,74.9245863528961,3.191817532478280,0.3031580553574390,2458753.353057910000,20190926.8530579,1187.499370833280,3.25119608715478,0.213904,83.24501968,2.22801,3.525,2.3909E-08,3.9115E-09,5.1667E-08,3.1162E-06,4.043E-05,4.0688E-05,4.4609E-06,5.6889E-09,8.1049E-10,1.4533E-05,3.1748E-06,AMO,Otto Matic,18170,1970-09-08,2020-06-07,3211,,,0,0.4236,,,,,
a0005645,2005645,5645 (1990 SP),5645,,,Y,N,17.1,,,,,,,1.668,,0.121,30.39,,,,,,,,0.018,JPL 131,2459000.5,59000,20200531.0000000,J2000,0.3874349180363430,1.354999634924130,0.8300254624280230,13.50254548360590,45.74083960634190,48.23355174297460,244.2630952691780,1.879973807420230,0.6248781033266200,2459185.715170950000,20201202.2151710,576.112361888652,1.57730968347338,0.0535099,20.824447783,3.37669,4.755,4.37E-08,2.5861E-09,6.0211E-08,7.1521E-06,2.5219E-05,2.9123E-05,8.2873E-06,3.588E-09,1.7889E-09,1.3361E-05,1.6493E-06,APO,Otto Matic,16827,1974-08-13,2020-09-07,622,,,0,0.42026,,,,,
a0005646,2005646,5646 (1990 TR),5646,,,Y,N,15.4,,,,,,,4.3,,0.223,3.1999,,,,,U,,,,JPL 369,2459000.5,59000,20200531.0000000,J2000,0.4359095648780170,2.143443794167680,1.20909614251156,7.906258988869340,14.10766949987740,335.7286890944500,172.4676417670290,3.077791445823800,0.314076848247606,2458451.374387180000,20181128.8743872,1146.216290721910,3.13816917377663,0.212024,82.51338008,2.36578,3.572,3.2276E-08,4.6673E-09,6.9973E-08,4.2323E-06,2.2292E-05,2.2634E-05,3.9765E-06,6.7018E-09,1.0258E-09,1.1721E-05,3.7438E-06,AMO,Otto Matic,10943,1990-05-03,2020-04-18,2044,,,0,0.44485,,,,,
a0005653,2005653,5653 Camarillo (1992 WD5),5653,Camarillo,,Y,N,16.2,,,,,,,1.537,,0.271,4.834,,,,,,,,0.016,JPL 317,2459000.5,59000,20200531.0000000,J2000,0.3041422304583540,1.794691927890170,1.248850321956050,6.872376667871230,9.945664178704420,122.5435307233550,127.8185559041420,2.340533533824290,0.4099389738905010,2458688.701015160000,20190724.2010152,878.1794923850310,2.40432441446962,0.283575,110.35888275,2.72072,4.010,3.2613E-08,2.0294E-09,5.8634E-08,2.8762E-06,2.9632E-05,3.0293E-05,6.906E-06,2.6466E-09,6.9533E-10,1.6533E-05,1.4895E-06,AMO,Otto Matic,16954,1974-03-24,2020-08-23,1912,,,0,0.43533,,,,,
a0005660,2005660,5660 (1974 MA),5660,,,Y,N,15.5,,,,,,,,,,17.5,,,,,Q,,,,JPL 69,2459000.5,59000,20200531.0000000,J2000,0.7621000582673580,1.785154960689290,0.4246882611317210,38.13176071841980,302.1551885293710,127.0294894825410,56.96947629522050,3.145621660246870,0.4132284290900800,2458862.635631810000,20200114.1356318,871.188850178367,2.38518507920155,0.162354,63.18330618,2.83702,3.511,1.0611E-07,4.131E-09,1.8947E-07,3.3786E-05,1.4794E-05,2.0569E-05,8.4842E-06,7.2792E-09,1.4344E-09,2.0131E-05,3.024E-06,APO,Otto Matic,16737,1974-06-26,2020-04-22,272,1,1,0,0.47212,,,,,
a0005693,2005693,5693 (1993 EA),5693,,,Y,Y,16.7,,,,,,,,,,2.496,,,,,,,,,JPL 349,2459000.5,59000,20200531.0000000,J2000,0.5851484366922080,1.270945800331020,0.527253852146797,5.054676356947000,97.03424483740870,258.8851260421910,182.3029093059910,2.014637748515250,0.6878813395234390,2459258.825208850000,20210213.3252088,523.3460763006110,1.43284346694212,0.00561681,2.1858939477,3.44022,4.893,3.382E-08,1.9948E-09,4.3074E-08,2.7391E-06,3.5168E-05,3.4834E-05,1.0739E-05,3.162E-09,1.6195E-09,1.5852E-05,1.2321E-06,APO,Otto Matic,13273,1984-01-10,2020-05-13,1885,,,0,0.48388,,,,,
a0005731,2005731,5731 Zeus (1988 VP4),5731,Zeus,,Y,N,15.6,,,,,,,5.231,,0.031,,,,,,,,,0.686,JPL 134,2459000.5,59000,20200531.0000000,J2000,0.6533794372541740,2.264456222238340,0.784907090065541,11.42318436751120,281.6675444039310,217.0443355630350,65.376531870834,3.744005354411140,0.2892398850677760,2458774.471242400000,20191017.9712424,1244.641623044630,3.40764304735013,0.070701,27.51470817,1.43034,3.277,4.5028E-08,7.7354E-09,1.0317E-07,5.3837E-06,3.107E-05,3.1102E-05,6.6487E-06,1.279E-08,1.4821E-09,2.1984E-05,6.3775E-06,APO,Otto Matic,11599,1988-09-13,2020-06-16,559,,,0,0.48444,,,,,
a0005751,2005751,5751 Zao (1992 AC),5751,Zao,,Y,N,14.8,,,,,,,2.3,,0.36,76,,,,,X,,,,JPL 267,2459000.5,59000,20200531.0000000,J2000,0.4234747647345750,2.103979838948580,1.212997471643540,16.07356215701840,121.6660621995900,25.30520976706080,97.17949568675430,2.994962206253620,0.3229547771253000,2458699.592558560000,20190804.0925586,1114.707152513580,3.05190185493108,0.245382,95.49531294,2.06936,3.580,4.0692E-08,1.0727E-08,8.7789E-08,5.1235E-06,1.1737E-05,1.9977E-05,3.0193E-05,1.527E-08,2.47E-09,9.1211E-05,8.5253E-06,AMO,Otto Matic,11464,1989-03-10,2020-07-29,1601,,,0,0.51828,,,,,
a0005786,2005786,5786 Talos (1991 RC),5786,Talos,,Y,N,17.1,,,,,,,,,,23.60,,,,,,,,,JPL 183,2459000.5,59000,20200531.0000000,J2000,0.8267796685923640,1.081461927442420,0.1873311934763180,23.22780915035580,161.3013608620000,8.354098883318190,315.4366041692600,1.975592661408530,0.8763694336247390,2459051.350011560000,20200720.8500116,410.7856643413600,1.12466985445958,0.188961,73.53795237,2.99961,5.283,3.3663E-08,2.0085E-09,3.6445E-08,8.494E-06,7.2827E-06,8.8832E-06,1.3655E-05,3.6691E-09,2.4414E-09,1.567E-05,1.1444E-06,APO,Otto Matic,10279,1991-09-03,2019-10-25,1017,,,0,0.50294,,,,,
a0005797,2005797,5797 Bivoj (1980 AA),5797,Bivoj,,Y,N,18.8,,,,,,,0.4,,,2.706,,,,,,,,,JPL 92,2459000.5,59000,20200531.0000000,J2000,0.4439525006046590,1.894850594385180,1.053626934735650,4.190151708243930,298.9474327896770,168.5576078678210,184.3298195817720,2.736074254034700,0.3778693055318040,2459465.396666250000,20210907.8966662,952.7103544262350,2.60837879377477,0.0715876,27.859746292,2.42041,3.825,2.8631E-08,9.5743E-10,5.3918E-08,3.8737E-06,3.9371E-05,4.0327E-05,8.8619E-06,1.3825E-09,2.864E-10,2.3742E-05,7.2208E-07,AMO,Otto Matic,23940,1953-10-12,2019-04-29,518,,,0,0.53532,,,,,
a0005828,2005828,5828 (1991 AM),5828,,,Y,N,15.9,,,,,,,1.457,,0.331,2.6666,,,,,Q,,,0.044,JPL 143,2459000.5,59000,20200531.0000000,J2000,0.6951778416176100,1.697722945016160,0.5175035724351320,30.12731212391520,125.4266016509480,152.7630337410900,64.80227664312290,2.877942317597180,0.44555759031524,2458855.059145550000,20200106.5591455,807.9763600150850,2.21211871325143,0.397192,154.57521064,2.4623,3.775,5.6366E-08,5.3805E-09,9.5776E-08,1.0209E-05,1.0196E-05,1.2383E-05,1.2518E-05,9.121E-09,2.1181E-09,2.7552E-05,3.841E-06,APO,Otto Matic,13196,1982-11-13,2018-12-30,808,,,0,0.43207,,,,,
a0005836,2005836,5836 (1993 MF),5836,,,Y,N,14.8,,,,,,,2.754,,0.156,4.9543,,,,,S,,,0.808,JPL 284,2459000.5,59000,20200531.0000000,J2000,0.5369197021980950,2.439716445551280,1.129784618158090,7.949706150866430,238.7840584196710,77.93974573051910,6.120707990480380,3.749648272944460,0.2586396139557210,2458976.834994100000,20200507.3349941,1391.898149297550,3.810809443662,0.1834,71.373778,1.71059,3.277,2.5562E-08,2.2367E-09,6.2677E-08,3.6337E-06,2.7785E-05,2.8136E-05,3.1988E-06,3.4377E-09,3.5568E-10,1.2365E-05,1.9141E-06,AMO,Otto Matic,14377,1981-04-26,2020-09-05,1591,,,0,0.46165,,,,,
